SHIYAN-1 (SY-1)         
1 28220U 04012A   26068.73650539  .00016393  00000+0  54854-3 0  9991
2 28220  97.8764 140.5238 0005873  23.6952 336.4557 15.31043463195862
STARLINK-30982          
1 58512U 23191E   26068.47114459  .00018644  00000+0  68716-3 0  9997
2 58512  42.9984 105.0294 0001071 306.8199  53.2554 15.27490960125437
